*******************************************************************************
JPL/HORIZONS              1543 Bourgeois (1941 SJ)         2022-Sep-29 06:58:39
Rec #:    1543 (+COV) Soln.date: 2022-Sep-21_20:12:28   # obs: 3391 (1941-2022)
 
IAU76/J2000 helio. ecliptic osc. elements (au, days, deg., period=Julian yrs):
 
  EPOCH=  2457331.5 ! 2015-Nov-05.00 (TDB)         Residual RMS= .27607
   EC= .3255481598321954   QR= 1.774354592296833   TP= 2456670.13433073
   OM= 288.1368382567027   W=  25.64735811449514   IN= 11.04206445019296
   A= 2.630809920920923    MA= 152.7606560816237   ADIST= 3.487265249545013
   PER= 4.26719            N= .230977595           ANGMOM= .026381495
   DAN= 1.81835            DDN= 3.32895            L= 313.3688822
   B= 4.7552752            MOID= .766478           TP= 2014-Jan-12.6343307300
 
Asteroid physical parameters (km, seconds, rotational period in hours):
   GM= n.a.                RAD= 5.9925             ROTPER= 2.48
   H= 12.07                G= .150                 B-V= n.a.
                           ALBEDO= .214            STYP= n.a.
 
ASTEROID comments: 
1: soln ref.= JPL#49, OCC=0
2: source=ORB
*******************************************************************************


*******************************************************************************
Ephemeris / WWW_USER Thu Sep 29 06:58:39 2022 Pasadena, USA      / Horizons    
*******************************************************************************
Target body name: 1543 Bourgeois (1941 SJ)        {source: JPL#49}
Center body name: Earth (399)                     {source: DE441}
Center-site name: (user defined site below)
*******************************************************************************
Start time      : A.D. 2022-Sep-01 00:00:00.0000 UT      
Stop  time      : A.D. 2022-Sep-02 00:00:00.0000 UT      
Step-size       : 1 minutes
*******************************************************************************
Target pole/equ : No model available
Target radii    : 6.0 km                                                       
Center geodetic : 283.615400,42.4580000,0.4572000 {E-lon(deg),Lat(deg),Alt(km)}
Center cylindric: 283.615400,4713.14445,4283.5825 {E-lon(deg),Dxy(km),Dz(km)}
Center pole/equ : ITRF93                          {East-longitude positive}
Center radii    : 6378.1 x 6378.1 x 6356.8 km     {Equator, meridian, pole}    
Target primary  : Sun
Vis. interferer : MOON (R_eq= 1737.400) km        {source: DE441}
Rel. light bend : Sun                             {source: DE441}
Rel. lght bnd GM: 1.3271E+11 km^3/s^2                                          
Small-body perts: Yes                             {source: SB441-N16}
Atmos refraction: NO (AIRLESS)
RA format       : HMS
Time format     : CAL 
RTS-only print  : NO       
EOP file        : eop.220927.p221221                                           
EOP coverage    : DATA-BASED 1962-JAN-20 TO 2022-SEP-27. PREDICTS-> 2022-DEC-20
Units conversion: 1 au= 149597870.700 km, c= 299792.458 km/s, 1 day= 86400.0 s 
Table cut-offs 1: Elevation (-90.0deg=NO ),Airmass (>38.000=NO), Daylight (NO )
Table cut-offs 2: Solar elongation (  0.0,180.0=NO ),Local Hour Angle( 0.0=NO )
Table cut-offs 3: RA/DEC angular rate (     0.0=NO )                           
*******************************************************************************
Initial IAU76/J2000 heliocentric ecliptic osculating elements (au, days, deg.):
  EPOCH=  2457331.5 ! 2015-Nov-05.00 (TDB)         Residual RMS= .27607        
   EC= .3255481598321954   QR= 1.774354592296833   TP= 2456670.13433073        
   OM= 288.1368382567027   W=  25.64735811449514   IN= 11.04206445019296       
  Equivalent ICRF heliocentric cartesian coordinates (au, au/d):
   X=-1.651013332787680E+00  Y= 2.807523754192264E+00  Z= 1.082552594220312E+00
  VX=-7.041046398550460E-03 VY=-2.036859919799725E-03 VZ=-2.495722218532608E-03
Asteroid physical parameters (km, seconds, rotational period in hours):        
   GM= n.a.                RAD= 5.9925             ROTPER= 2.48                
   H= 12.07                G= .150                 B-V= n.a.                   
                           ALBEDO= .214            STYP= n.a.                  
*********************************************************************************************************************************************************************************************
 Date__(UT)__HR:MN     R.A._____(ICRF)_____DEC  a-mass mag_ex    APmag   S-brt             delta      deldot     S-O-T /r     S-T-O  Sky_motion  Sky_mot_PA  RelVel-ANG  Lun_Sky_Brt  sky_SNR
*********************************************************************************************************************************************************************************************
$$SOE
 2022-Sep-01 09:00 A   20 57 51.99 -00 42 59.9  12.474  3.012   13.772   4.973  0.83532471162084   8.3637111  153.2302 /T   14.6677   0.2921866   289.53407   70.569341         n.a.     n.a.
 2022-Sep-01 09:01 A   20 57 51.98 -00 42 59.8  12.916  3.119   13.772   4.973  0.83532806620216   8.3640648  153.2296 /T   14.6681   0.2920316   289.54394   70.579563         n.a.     n.a.
 2022-Sep-01 09:02 A   20 57 51.96 -00 42 59.7  13.388  3.233   13.772   4.973  0.83533142092404   8.3644120  153.2290 /T   14.6684   0.2918766   289.55384   70.589774         n.a.     n.a.
 2022-Sep-01 09:03 A   20 57 51.94 -00 42 59.6  13.890  3.355   13.772   4.973  0.83533477578383   8.3647525  153.2284 /T   14.6687   0.2917215   289.56374   70.599975         n.a.     n.a.
 2022-Sep-01 09:04 A   20 57 51.92 -00 42 59.5  14.427  3.484   13.772   4.973  0.83533813077892   8.3650866  153.2277 /T   14.6690   0.2915664   289.57366   70.610164         n.a.     n.a.
 2022-Sep-01 09:05 A   20 57 51.90 -00 42 59.4  15.000  3.623   13.772   4.973  0.83534148590667   8.3654140  153.2271 /T   14.6693   0.2914113   289.58359   70.620343         n.a.     n.a.
 2022-Sep-01 09:06 A   20 57 51.88 -00 42 59.3  15.614  3.771   13.772   4.973  0.83534484116444   8.3657349  153.2265 /T   14.6696   0.2912561   289.59353   70.630511         n.a.     n.a.
 2022-Sep-01 09:07 A   20 57 51.87 -00 42 59.2  16.271  3.930   13.772   4.973  0.83534819654959   8.3660493  153.2259 /T   14.6699   0.2911009   289.60349   70.640667         n.a.     n.a.
 2022-Sep-01 09:08 A   20 57 51.85 -00 42 59.1  16.977  4.100   13.772   4.973  0.83535155205950   8.3663570  153.2252 /T   14.6702   0.2909456   289.61345   70.650812         n.a.     n.a.
 2022-Sep-01 09:09 A   20 57 51.83 -00 42 59.0  17.734  4.283   13.772   4.973  0.83535490769153   8.3666582  153.2246 /T   14.6706   0.2907903   289.62343   70.660946         n.a.     n.a.
 2022-Sep-01 09:10 A   20 57 51.81 -00 42 58.9  18.549  4.480   13.772   4.973  0.83535826344305   8.3669528  153.2240 /T   14.6709   0.2906350   289.63342   70.671067         n.a.     n.a.
 2022-Sep-01 09:11 A   20 57 51.79 -00 42 58.8  19.427  4.692   13.772   4.973  0.83536161931140   8.3672408  153.2234 /T   14.6712   0.2904797   289.64342   70.681177         n.a.     n.a.
 2022-Sep-01 09:12 A   20 57 51.78 -00 42 58.7  20.372  4.920   13.772   4.973  0.83536497529396   8.3675223  153.2228 /T   14.6715   0.2903243   289.65344   70.691275         n.a.     n.a.
 2022-Sep-01 09:13 A   20 57 51.76 -00 42 58.6  21.392  5.166   13.772   4.973  0.83536833138809   8.3677972  153.2221 /T   14.6718   0.2901689   289.66346   70.701360         n.a.     n.a.
 2022-Sep-01 09:14 A   20 57 51.74 -00 42 58.5  22.493  5.432   13.772   4.973  0.83537168759115   8.3680655  153.2215 /T   14.6721   0.2900135   289.67350   70.711434         n.a.     n.a.
 2022-Sep-01 09:15 A   20 57 51.72 -00 42 58.4  23.682  5.719   13.772   4.973  0.83537504390049   8.3683272  153.2209 /T   14.6724   0.2898581   289.68355   70.721495         n.a.     n.a.
 2022-Sep-01 09:16 A   20 57 51.70 -00 42 58.3  24.966  6.030   13.772   4.973  0.83537840031348   8.3685823  153.2203 /T   14.6727   0.2897027   289.69360   70.731543         n.a.     n.a.
 2022-Sep-01 09:17 A   20 57 51.68 -00 42 58.2  26.353  6.365   13.772   4.973  0.83538175682747   8.3688308  153.2197 /T   14.6730   0.2895472   289.70367   70.741578         n.a.     n.a.
 2022-Sep-01 09:18 A   20 57 51.67 -00 42 58.1  27.851  6.726   13.772   4.973  0.83538511343983   8.3690728  153.2190 /T   14.6734   0.2893918   289.71375   70.751601         n.a.     n.a.
 2022-Sep-01 09:19 A   20 57 51.65 -00 42 58.0  29.467  7.117   13.772   4.973  0.83538847014791   8.3693082  153.2184 /T   14.6737   0.2892363   289.72384   70.761610         n.a.     n.a.
 2022-Sep-01 09:20 A   20 57 51.63 -00 42 57.9  31.210  7.537   13.772   4.973  0.83539182694908   8.3695369  153.2178 /T   14.6740   0.2890809   289.73394   70.771606         n.a.     n.a.
 2022-Sep-01 09:21 A   20 57 51.61 -00 42 57.8  33.086  7.991   13.772   4.973  0.83539518384069   8.3697591  153.2172 /T   14.6743   0.2889254   289.74405   70.781589         n.a.     n.a.
 2022-Sep-01 09:22 A   20 57 51.59 -00 42 57.7  35.103  8.478   13.772   4.973  0.83539854082010   8.3699748  153.2166 /T   14.6746   0.2887700   289.75417   70.791559         n.a.     n.a.
 2022-Sep-01 09:23 A   20 57 51.58 -00 42 57.6  37.270  9.001   13.772   4.973  0.83540189788467   8.3701838  153.2159 /T   14.6749   0.2886145   289.76430   70.801514         n.a.     n.a.
 2022-Sep-01 09:24 A   20 57 51.56 -00 42 57.5    n.a.   n.a.   13.772   4.973  0.83540525503175   8.3703862  153.2153 /T   14.6752   0.2884591   289.77444   70.811456         n.a.     n.a.
 2022-Sep-01 09:25 A   20 57 51.54 -00 42 57.4    n.a.   n.a.   13.772   4.973  0.83540861225871   8.3705821  153.2147 /T   14.6755   0.2883037   289.78458   70.821384         n.a.     n.a.
 2022-Sep-01 09:26 A   20 57 51.52 -00 42 57.3    n.a.   n.a.   13.772   4.973  0.83541196956290   8.3707713  153.2141 /T   14.6759   0.2881483   289.79474   70.831298         n.a.     n.a.
